<?xml version="1.0" encoding="UTF-8"?>
<gpx version="1.1" creator="RunSync" xmlns="http://www.topografix.com/GPX/1/1">
  <metadata><time>2023-05-23T01:48:06Z</time></metadata>
  <trk>
    <name>跑步</name>
    <type>running</type>
    <trkseg>

    </trkseg>
  </trk>
  <extensions>
    <distance>194.04</distance>
    <moving_time>145.68</moving_time>
    <elapsed_time>145.68</elapsed_time>
    <average_speed>1.33</average_speed>
    <start_time>2023-05-23T01:48:06Z</start_time>
    <end_time>2023-05-23T01:50:32Z</end_time>
    <average_hr>115.59</average_hr>
  </extensions>
</gpx>
