<?xml version="1.0" encoding="UTF-8"?>
<gpx version="1.1" creator="RunSync" xmlns="http://www.topografix.com/GPX/1/1">
  <metadata><time>2023-05-05T23:04:48Z</time></metadata>
  <trk>
    <name>跑步</name>
    <type>running</type>
    <trkseg>

    </trkseg>
  </trk>
  <extensions>
    <distance>3093.75</distance>
    <moving_time>1527.00</moving_time>
    <elapsed_time>1527.00</elapsed_time>
    <average_speed>2.03</average_speed>
    <start_time>2023-05-05T23:04:48Z</start_time>
    <end_time>2023-05-05T23:30:15Z</end_time>
  </extensions>
</gpx>
