<?xml version="1.0" encoding="UTF-8"?>
<gpx version="1.1" creator="RunSync" xmlns="http://www.topografix.com/GPX/1/1">
  <metadata><time>2023-05-06T23:03:50Z</time></metadata>
  <trk>
    <name>跑步</name>
    <type>running</type>
    <trkseg>

    </trkseg>
  </trk>
  <extensions>
    <distance>3062.18</distance>
    <moving_time>1561.00</moving_time>
    <elapsed_time>1561.00</elapsed_time>
    <average_speed>1.96</average_speed>
    <start_time>2023-05-06T23:03:50Z</start_time>
    <end_time>2023-05-06T23:29:51Z</end_time>
  </extensions>
</gpx>
