<?xml version="1.0" encoding="UTF-8"?>
<gpx version="1.1" creator="RunSync" xmlns="http://www.topografix.com/GPX/1/1">
  <metadata><time>2023-05-10T23:02:01Z</time></metadata>
  <trk>
    <name>跑步</name>
    <type>running</type>
    <trkseg>

    </trkseg>
  </trk>
  <extensions>
    <distance>3053.05</distance>
    <moving_time>1522.00</moving_time>
    <elapsed_time>1522.00</elapsed_time>
    <average_speed>2.01</average_speed>
    <start_time>2023-05-10T23:02:01Z</start_time>
    <end_time>2023-05-10T23:27:23Z</end_time>
  </extensions>
</gpx>
