<?xml version="1.0" encoding="UTF-8"?>
<gpx version="1.1" creator="RunSync" xmlns="http://www.topografix.com/GPX/1/1">
  <metadata><time>2026-10-08T23:54:37Z</time></metadata>
  <trk>
    <name>跑步</name>
    <type>running</type>
    <trkseg>

    </trkseg>
  </trk>
  <extensions>
    <distance>4023.37</distance>
    <moving_time>1754.31</moving_time>
    <elapsed_time>1754.31</elapsed_time>
    <average_speed>2.29</average_speed>
    <start_time>2026-10-08T23:54:37Z</start_time>
    <end_time>2026-10-09T00:23:52Z</end_time>
    <average_hr>137.00</average_hr>
  </extensions>
</gpx>
